{
  "norad_id": 53482,
  "name": "STARLINK-4360",
  "history": [
    {
      "epoch": "2026-03-28T20:51:01.168128",
      "apogee_km": 553.2241917135998,
      "perigee_km": 550.8269098840283,
      "latitude_deg": -44.19859721699842,
      "longitude_deg": -28.398702080128714,
      "semi_major_axis_km": 6930.162550798814,
      "eccentricity": 0.00017296,
      "inclination_deg": 97.6043,
      "raan_deg": 209.0644,
      "arg_perigee_deg": 90.9675,
      "mean_anomaly_deg": 269.1749,
      "mean_motion_rev_day": 15.04830656
    },
    {
      "epoch": "2026-03-29T04:49:39.067968",
      "apogee_km": 552.8355268941186,
      "perigee_km": 550.6456855705492,
      "latitude_deg": -84.85255621089914,
      "longitude_deg": 3.5100755197927356,
      "semi_major_axis_km": 6929.877606232333,
      "eccentricity": 0.000158,
      "inclination_deg": 97.6044,
      "raan_deg": 209.3919,
      "arg_perigee_deg": 92.0594,
      "mean_anomaly_deg": 268.0813,
      "mean_motion_rev_day": 15.04923471
    }
  ]
}